{
    "links": {
        "self": "http://www.neowsapp.com/rest/v1/neo/3590911?api_key=iIulBulltgU6a56xZRHN4H3l9WmuAYTsLGpBGhQ2"
    },
    "id": "3590911",
    "neo_reference_id": "3590911",
    "name": "(2011 XC2)",
    "designation": "2011 XC2",
    "nasa_jpl_url": "http://ssd.jpl.nasa.gov/sbdb.cgi?sstr=3590911",
    "absolute_magnitude_h": 23.2,
    "estimated_diameter": {
        "kilometers": {
            "estimated_diameter_min": 0.0608912622,
            "estimated_diameter_max": 0.1361570015
        },
        "meters": {
            "estimated_diameter_min": 60.8912622106,
            "estimated_diameter_max": 136.1570015386
        },
        "miles": {
            "estimated_diameter_min": 0.0378360645,
            "estimated_diameter_max": 0.0846040122
        },
        "feet": {
            "estimated_diameter_min": 199.7744887109,
            "estimated_diameter_max": 446.7093369279
        }
    },
    "is_potentially_hazardous_asteroid": false,
    "close_approach_data": [
        {
            "close_approach_date": "2011-12-03",
            "close_approach_date_full": "2011-Dec-03 15:21",
            "epoch_date_close_approach": 1322925660000,
            "relative_velocity": {
                "kilometers_per_second": "20.9277585689",
                "kilometers_per_hour": "75339.9308479885",
                "miles_per_hour": "46813.3031427404"
            },
            "miss_distance": {
                "astronomical": "0.0023221581",
                "lunar": "0.9033195009",
                "kilometers": "347389.905563247",
                "miles": "215858.0778449286"
            },
            "orbiting_body": "Earth"
        },
        {
            "close_approach_date": "2011-12-03",
            "close_approach_date_full": "2011-Dec-03 16:21",
            "epoch_date_close_approach": 1322929260000,
            "relative_velocity": {
                "kilometers_per_second": "20.3865101133",
                "kilometers_per_hour": "73391.4364077824",
                "miles_per_hour": "45602.5844723802"
            },
            "miss_distance": {
                "astronomical": "0.0016045151",
                "lunar": "0.6241563739",
                "kilometers": "240032.041342837",
                "miles": "149148.9943596706"
            },
            "orbiting_body": "Moon"
        },
        {
            "close_approach_date": "2198-07-18",
            "close_approach_date_full": "2198-Jul-18 17:21",
            "epoch_date_close_approach": 7212216060000,
            "relative_velocity": {
                "kilometers_per_second": "19.0239730532",
                "kilometers_per_hour": "68486.3029914264",
                "miles_per_hour": "42554.7253226449"
            },
            "miss_distance": {
                "astronomical": "0.4720985021",
                "lunar": "183.6463173169",
                "kilometers": "70624930.344350527",
                "miles": "43884296.7740981926"
            },
            "orbiting_body": "Earth"
        }
    ],
    "orbital_data": {
        "orbit_id": "14",
        "orbit_determination_date": "2017-04-06 08:51:46",
        "first_observation_date": "2011-12-08",
        "last_observation_date": "2011-12-30",
        "data_arc_in_days": 22,
        "observations_used": 35,
        "orbit_uncertainty": "7",
        "minimum_orbit_intersection": ".000366125",
        "jupiter_tisserand_invariant": "3.485",
        "epoch_osculation": "2459000.5",
        "eccentricity": ".5805467877293609",
        "semi_major_axis": "2.001744598986401",
        "inclination": "28.79733802624456",
        "ascending_node_longitude": "70.65543947458494",
        "orbital_period": "1034.454575674641",
        "perihelion_distance": ".8396382021902482",
        "perihelion_argument": "306.5954621749873",
        "aphelion_distance": "3.163850995782553",
        "perihelion_time": "2458964.719072769018",
        "mean_anomaly": "12.45210191540098",
        "mean_motion": ".3480094810013465",
        "equinox": "J2000",
        "orbit_class": {
            "orbit_class_type": "APO",
            "orbit_class_description": "Near-Earth asteroid orbits which cross the Earth’s orbit similar to that of 1862 Apollo",
            "orbit_class_range": "a (semi-major axis) > 1.0 AU; q (perihelion) < 1.017 AU"
        }
    },
    "is_sentry_object": false
}